H1 CPF 01  gfz 2022 12 09 01  8431 terrasarx 
H2 0702601  6201 31698    2022 12 09 00 59 42 2022 12 14 00 00 42   120 1 1  0 0 0
H9
10 0 59924  46062.000000  0   -1029322.729   -603822.485  -6790996.822
10 0 59924  46182.000000  0    -850669.424    295642.460  -6836006.663
10 0 59924  46302.000000  0    -641618.151   1186596.450  -6761810.532
10 0 59924  46422.000000  0    -406074.486   2053112.478  -6569683.068
10 0 59924  46542.000000  0    -148677.369   2879747.006  -6262928.133
10 0 59924  46662.000000  0     125288.583   3651811.013  -5846829.848
10 0 59924  46782.000000  0     409997.358   4355629.843  -5328570.389
10 0 59924  46902.000000  0     699199.395   4978786.540  -4717117.112
10 0 59924  47022.000000  0     986352.142   5510347.274  -4023079.084
10 0 59924  47142.000000  0    1264761.138   5941062.392  -3258532.371
10 0 59924  47262.000000  0    1527728.325   6263538.435  -2436817.322
10 0 59924  47382.000000  0    1768704.665   6472377.784  -1572309.756
10 0 59924  47502.000000  0    1981443.632   6564281.132   -680168.982
10 0 59924  47622.000000  0    2160151.393   6538108.518    223932.498
10 0 59924  47742.000000  0    2299629.258   6394897.123   1124090.908
10 0 59924  47862.000000  0    2395405.327   6137835.688   2004458.605
10 0 59924  47982.000000  0    2443851.672   5772195.865   2849531.222
10 0 59924  48102.000000  0    2442284.491   5305222.564   3644428.325
10 0 59924  48222.000000  0    2389044.250   4745985.549   4375162.267
10 0 59924  48342.000000  0    2283553.172   4105195.113   5028890.002
10 0 59924  48462.000000  0    2126348.069   3394984.969   5594138.081
10 0 59924  48582.000000  0    1919091.073   2628675.325   6060999.259
10 0 59924  48702.000000  0    1664557.069   1820517.453   6421302.219
10 0 59924  48822.000000  0    1366596.931    985423.127   6668749.258
10 0 59924  48942.000000  0    1030078.349    138686.637   6799019.009
10 0 59924  49062.000000  0     660805.954   -704294.045   6809837.048
10 0 59924  49182.000000  0     265420.989  -1528297.106   6701014.816
10 0 59924  49302.000000  0    -148718.339  -2318551.789   6474452.535
10 0 59924  49422.000000  0    -573673.702  -3061003.688   6134107.723
10 0 59924  49542.000000  0   -1001076.995  -3742565.602   5685928.102
10 0 59924  49662.000000  0   -1422291.960  -4351349.224   5137753.417
10 0 59924  49782.000000  0   -1828587.382  -4876877.721   4499187.181
10 0 59924  49902.000000  0   -2211318.121  -5310275.136   3781434.912
10 0 59924  50022.000000  0   -2562109.045  -5644425.977   2997109.563
10 0 59924  50142.000000  0   -2873036.915  -5874099.193   2160009.021
10 0 59924  50262.000000  0   -3136806.406  -5996035.965   1284870.909
10 0 59924  50382.000000  0   -3346916.289  -6008999.017    387107.848
10 0 59924  50502.000000  0   -3497811.307  -5913781.345   -517471.342
10 0 59924  50622.000000  0   -3585015.938  -5713174.097  -1412948.911
10 0 59924  50742.000000  0   -3605246.382  -5411893.459  -2283587.388
10 0 59924  50862.000000  0   -3556498.024  -5016468.842  -3114113.717
10 0 59924  50982.000000  0   -3438105.835  -4535095.609  -3889991.948
10 0 59924  51102.000000  0   -3250776.590  -3977457.484  -4597678.007
10 0 59924  51222.000000  0   -2996593.522  -3354524.209  -5224852.663
10 0 59924  51342.000000  0   -2678993.820  -2678328.860  -5760629.163
10 0 59924  51462.000000  0   -2302720.003  -1961730.652  -6195732.748
10 0 59924  51582.000000  0   -1873745.729  -1218168.043  -6522650.976
10 0 59924  51702.000000  0   -1399177.978   -461406.676  -6735751.673
10 0 59924  51822.000000  0    -887139.101    294712.146  -6831368.558
10 0 59924  51942.000000  0    -346629.894   1036518.331  -6807857.187
10 0 59924  52062.000000  0     212625.259   1750753.797  -6665619.971
10 0 59924  52182.000000  0     780347.656   2424803.024  -6407101.118
10 0 59924  52302.000000  0    1345889.500   3046912.506  -6036750.895
10 0 59924  52422.000000  0    1898429.366   3606394.362  -5560956.329
10 0 59924  52542.000000  0    2427175.681   4093810.573  -4987941.348
10 0 59924  52662.000000  0    2921575.553   4501136.152  -4327636.410
10 0 59924  52782.000000  0    3371525.031   4821898.473  -3591516.937
10 0 59924  52902.000000  0    3767576.676   5051288.297  -2792412.492
10 0 59924  53022.000000  0    4101140.690   5186239.808  -1944288.109
10 0 59924  53142.000000  0    4364672.618   5225476.571  -1062001.853
10 0 59924  53262.000000  0    4551844.410   5169523.745   -161042.360
10 0 59924  53382.000000  0    4657693.589   5020682.388    742749.253
10 0 59924  53502.000000  0    4678744.745   4782967.455   1633464.966
10 0 59924  53622.000000  0    4613103.064   4462013.470   2495417.090
10 0 59924  53742.000000  0    4460516.945   4064946.609   3313424.714
10 0 59924  53862.000000  0    4222404.299   3600226.407   4073088.864
10 0 59924  53982.000000  0    3901845.233   3077462.525   4761049.663
10 0 59924  54102.000000  0    3503542.926   2507212.808   5365223.458
10 0 59924  54222.000000  0    3033748.610   1900764.502   5875014.546
10 0 59924  54342.000000  0    2500158.100   1269907.391   6281495.338
10 0 59924  54462.000000  0    1911781.460    626701.354   6577556.689
10 0 59924  54582.000000  0    1278787.429    -16754.411   6758025.415
10 0 59924  54702.000000  0     612325.601   -648547.685   6819750.801
10 0 59924  54822.000000  0     -75670.980  -1257174.243   6761656.533
10 0 59924  54942.000000  0    -772699.666  -1831746.947   6584757.672
10 0 59924  55062.000000  0   -1465915.038  -2362190.551   6292142.875
10 0 59924  55182.000000  0   -2142363.411  -2839417.963   5888922.729
10 0 59924  55302.000000  0   -2789223.439  -3255487.426   5382148.024
10 0 59924  55422.000000  0   -3394052.378  -3603739.207   4780694.235
10 0 59924  55542.000000  0   -3945030.330  -3878906.017   4095110.235
10 0 59924  55662.000000  0   -4431195.248  -4077195.795   3337436.475
10 0 59924  55782.000000  0   -4842665.510  -4196345.694   2520995.765
10 0 59924  55902.000000  0   -5170846.337  -4235646.398   1660158.564
10 0 59924  56022.000000  0   -5408613.354  -4195934.134    770085.212
10 0 59924  56142.000000  0   -5550468.441  -4079550.553   -133547.735
10 0 59924  56262.000000  0   -5592664.118  -3890271.927  -1034832.079
10 0 59924  56382.000000  0   -5533292.753  -3633208.903  -1917918.058
10 0 59924  56502.000000  0   -5372336.764  -3314678.430  -2767301.781
10 0 59924  56622.000000  0   -5111680.669  -2942053.619  -3568102.475
10 0 59924  56742.000000  0   -4755085.583  -2523594.957  -4306325.080
10 0 59924  56862.000000  0   -4308127.351  -2068267.542  -4969103.340
10 0 59924  56982.000000  0   -3778099.856  -1585549.062  -5544919.011
10 0 59924  57102.000000  0   -3173886.897  -1085232.492  -6023793.797
10 0 59924  57222.000000  0   -2505806.131   -577228.320  -6397451.483
10 0 59924  57342.000000  0   -1785428.104    -71370.643  -6659449.592
10 0 59924  57462.000000  0   -1025373.976    422769.087  -6805278.487
10 0 59924  57582.000000  0    -239097.603    896057.874  -6832429.981
10 0 59924  57702.000000  0     559347.139   1339965.741  -6740435.439
10 0 59924  57822.000000  0    1355550.359   1746714.680  -6530874.586
10 0 59924  57942.000000  0    2135001.267   2109413.113  -6207352.558
10 0 59924  58062.000000  0    2883347.841   2422171.725  -5775444.380
10 0 59924  58182.000000  0    3586657.762   2680199.192  -5242607.444
10 0 59924  58302.000000  0    4231676.576   2879876.833  -4618064.866
10 0 59924  58422.000000  0    4806081.204   3018811.391  -3912657.297
10 0 59924  58542.000000  0    5298721.221   3095863.150  -3138663.417
10 0 59924  58662.000000  0    5699842.260   3111149.522  -2309593.550
10 0 59924  58782.000000  0    6001289.135   3066024.116  -1439957.347
10 0 59924  58902.000000  0    6196679.955   2963028.683   -545008.573
10 0 59924  59022.000000  0    6281547.904   2805820.887    359526.482
10 0 59924  59142.000000  0    6253445.451   2599077.072   1257732.572
10 0 59924  59262.000000  0    6112008.853   2348375.399   2133792.659
10 0 59924  59382.000000  0    5858981.688   2060061.246   2972275.826
10 0 59924  59502.000000  0    5498194.369   1741096.524   3758417.614
10 0 59924  59622.000000  0    5035501.303   1398898.608   4478386.360
10 0 59924  59742.000000  0    4478677.425   1041172.375   5119528.485
10 0 59924  59862.000000  0    3837279.961    675740.345   5670590.810
10 0 59924  59982.000000  0    3122474.241    310373.536   6121916.329
10 0 59924  60102.000000  0    2346830.635    -47370.966   6465606.490
10 0 59924  60222.000000  0    1524099.229   -390303.329   6695653.194
10 0 59924  60342.000000  0     668962.949   -711743.714   6808039.469
10 0 59924  60462.000000  0    -203227.021  -1005651.346   6800804.941
10 0 59924  60582.000000  0   -1076726.644  -1266737.314   6674076.978
10 0 59924  60702.000000  0   -1935682.232  -1490559.913   6430067.582
10 0 59924  60822.000000  0   -2764416.114  -1673599.653   6073036.340
10 0 59924  60942.000000  0   -3547712.013  -1813314.168   5609223.126
10 0 59924  61062.000000  0   -4271099.099  -1908173.636   5046746.373
10 0 59924  61182.000000  0   -4921125.054  -1957674.542   4395466.046
10 0 59924  61302.000000  0   -5485613.510  -1962330.692   3666814.484
10 0 59924  61422.000000  0   -5953899.657  -1923641.440   2873598.182
10 0 59924  61542.000000  0   -6317040.501  -1844039.121   2029774.261
10 0 59924  61662.000000  0   -6567996.324  -1726816.775   1150202.464
10 0 59924  61782.000000  0   -6701773.959  -1576036.169    250376.023
10 0 59924  61902.000000  0   -6715529.477  -1396418.772   -653859.197
10 0 59924  62022.000000  0   -6608627.519  -1193222.742  -1546593.182
10 0 59924  62142.000000  0   -6382655.534   -972109.470  -2412140.121
10 0 59924  62262.000000  0   -6041393.881   -739003.740  -3235320.367
10 0 59924  62382.000000  0   -5590742.439   -499950.193  -4001731.021
10 0 59924  62502.000000  0   -5038606.229   -260968.965  -4697998.381
99
